[{"OBJECT_NAME":"STARLINK-30546","OBJECT_ID":"2023-153N","EPOCH":"2026-03-03T16:00:01.999584","MEAN_MOTION":15.25109456,"ECCENTRICITY":0.00013567,"INCLINATION":43.0009,"RA_OF_ASC_NODE":100.4964,"ARG_OF_PERICENTER":271.9214,"MEAN_ANOMALY":24.0604,"EPHEMERIS_TYPE":0,"CLASSIFICATION_TYPE":"U","NORAD_CAT_ID":58003,"ELEMENT_SET_NO":999,"REV_AT_EPOCH":579,"BSTAR":0.045200462,"MEAN_MOTION_DOT":0.01263386,"MEAN_MOTION_DDOT":0},{"OBJECT_NAME":"STARLINK-30539","OBJECT_ID":"2023-153P","EPOCH":"2026-03-03T16:00:01.999584","MEAN_MOTION":15.23693644,"ECCENTRICITY":0.00013144,"INCLINATION":43.0006,"RA_OF_ASC_NODE":100.5231,"ARG_OF_PERICENTER":271.3053,"MEAN_ANOMALY":14.7302,"EPHEMERIS_TYPE":0,"CLASSIFICATION_TYPE":"U","NORAD_CAT_ID":58004,"ELEMENT_SET_NO":999,"REV_AT_EPOCH":579,"BSTAR":0.044952096,"MEAN_MOTION_DOT":0.01199034,"MEAN_MOTION_DDOT":0},{"OBJECT_NAME":"STARLINK-30530","OBJECT_ID":"2023-153Q","EPOCH":"2026-03-03T16:00:01.999584","MEAN_MOTION":15.20199486,"ECCENTRICITY":0.00018172,"INCLINATION":42.9995,"RA_OF_ASC_NODE":100.6578,"ARG_OF_PERICENTER":266.2883,"MEAN_ANOMALY":318.5762,"EPHEMERIS_TYPE":0,"CLASSIFICATION_TYPE":"U","NORAD_CAT_ID":58005,"ELEMENT_SET_NO":999,"REV_AT_EPOCH":573,"BSTAR":0.087213674,"MEAN_MOTION_DOT":0.02115255,"MEAN_MOTION_DDOT":0},{"OBJECT_NAME":"STARLINK-30526","OBJECT_ID":"2023-153R","EPOCH":"2026-03-03T09:55:13.953216","MEAN_MOTION":15.16163592,"ECCENTRICITY":2.295e-5,"INCLINATION":42.9985,"RA_OF_ASC_NODE":76.6932,"ARG_OF_PERICENTER":352.8634,"MEAN_ANOMALY":7.221,"EPHEMERIS_TYPE":0,"CLASSIFICATION_TYPE":"U","NORAD_CAT_ID":58006,"ELEMENT_SET_NO":999,"REV_AT_EPOCH":13423,"BSTAR":0.00032567528,"MEAN_MOTION_DOT":6.173e-5,"MEAN_MOTION_DDOT":0},{"OBJECT_NAME":"STARLINK-30527","OBJECT_ID":"2023-153S","EPOCH":"2026-03-03T12:05:49.057728","MEAN_MOTION":15.27574734,"ECCENTRICITY":0.00011849,"INCLINATION":42.9986,"RA_OF_ASC_NODE":233.3103,"ARG_OF_PERICENTER":272.3893,"MEAN_ANOMALY":87.6823,"EPHEMERIS_TYPE":0,"CLASSIFICATION_TYPE":"U","NORAD_CAT_ID":58007,"ELEMENT_SET_NO":999,"REV_AT_EPOCH":13651,"BSTAR":-5.918662e-6,"MEAN_MOTION_DOT":-4.25e-6,"MEAN_MOTION_DDOT":0},{"OBJECT_NAME":"STARLINK-30522","OBJECT_ID":"2023-153T","EPOCH":"2026-03-03T16:00:01.999584","MEAN_MOTION":15.18247213,"ECCENTRICITY":0.00011664,"INCLINATION":43,"RA_OF_ASC_NODE":101.0844,"ARG_OF_PERICENTER":294.0008,"MEAN_ANOMALY":109.7399,"EPHEMERIS_TYPE":0,"CLASSIFICATION_TYPE":"U","NORAD_CAT_ID":58008,"ELEMENT_SET_NO":999,"REV_AT_EPOCH":579,"BSTAR":0.093266971,"MEAN_MOTION_DOT":0.02140938,"MEAN_MOTION_DDOT":0},{"OBJECT_NAME":"STARLINK-30486","OBJECT_ID":"2023-153U","EPOCH":"2026-03-03T16:00:01.999584","MEAN_MOTION":15.20266586,"ECCENTRICITY":0.00020271,"INCLINATION":43,"RA_OF_ASC_NODE":100.7083,"ARG_OF_PERICENTER":247.5406,"MEAN_ANOMALY":314.5949,"EPHEMERIS_TYPE":0,"CLASSIFICATION_TYPE":"U","NORAD_CAT_ID":58009,"ELEMENT_SET_NO":999,"REV_AT_EPOCH":579,"BSTAR":0.089115334,"MEAN_MOTION_DOT":0.02170977,"MEAN_MOTION_DDOT":0},{"OBJECT_NAME":"STARLINK-30520","OBJECT_ID":"2023-153V","EPOCH":"2026-03-03T16:00:01.999584","MEAN_MOTION":15.27408273,"ECCENTRICITY":0.00023975,"INCLINATION":43.0004,"RA_OF_ASC_NODE":100.6815,"ARG_OF_PERICENTER":170.5995,"MEAN_ANOMALY":43.2124,"EPHEMERIS_TYPE":0,"CLASSIFICATION_TYPE":"U","NORAD_CAT_ID":58010,"ELEMENT_SET_NO":999,"REV_AT_EPOCH":574,"BSTAR":0.0031722088,"MEAN_MOTION_DOT":0.00087615,"MEAN_MOTION_DDOT":0},{"OBJECT_NAME":"STARLINK-30497","OBJECT_ID":"2023-153W","EPOCH":"2026-03-03T16:00:01.999584","MEAN_MOTION":15.26690252,"ECCENTRICITY":0.00017667,"INCLINATION":43.0008,"RA_OF_ASC_NODE":100.6909,"ARG_OF_PERICENTER":279.1627,"MEAN_ANOMALY":288.7843,"EPHEMERIS_TYPE":0,"CLASSIFICATION_TYPE":"U","NORAD_CAT_ID":58011,"ELEMENT_SET_NO":999,"REV_AT_EPOCH":574,"BSTAR":0.00324461,"MEAN_MOTION_DOT":0.00087682,"MEAN_MOTION_DDOT":0},{"OBJECT_NAME":"STARLINK-30525","OBJECT_ID":"2023-153X","EPOCH":"2026-03-03T16:00:01.999584","MEAN_MOTION":15.24910802,"ECCENTRICITY":0.0001528,"INCLINATION":43.0002,"RA_OF_ASC_NODE":100.7949,"ARG_OF_PERICENTER":237.9176,"MEAN_ANOMALY":286.8408,"EPHEMERIS_TYPE":0,"CLASSIFICATION_TYPE":"U","NORAD_CAT_ID":58012,"ELEMENT_SET_NO":999,"REV_AT_EPOCH":579,"BSTAR":0.072740894,"MEAN_MOTION_DOT":0.02053728,"MEAN_MOTION_DDOT":0},{"OBJECT_NAME":"STARLINK-30514","OBJECT_ID":"2023-156A","EPOCH":"2026-03-03T09:14:48.432192","MEAN_MOTION":15.30184918,"ECCENTRICITY":0.00012128,"INCLINATION":53.1612,"RA_OF_ASC_NODE":107.4544,"ARG_OF_PERICENTER":90.0186,"MEAN_ANOMALY":270.0954,"EPHEMERIS_TYPE":0,"CLASSIFICATION_TYPE":"U","NORAD_CAT_ID":58028,"ELEMENT_SET_NO":999,"REV_AT_EPOCH":13535,"BSTAR":1.4320392e-5,"MEAN_MOTION_DOT":6.5e-7,"MEAN_MOTION_DDOT":0},{"OBJECT_NAME":"STARLINK-30518","OBJECT_ID":"2023-156B","EPOCH":"2026-03-03T09:28:28.136640","MEAN_MOTION":15.30197186,"ECCENTRICITY":0.00012191,"INCLINATION":53.1599,"RA_OF_ASC_NODE":107.5187,"ARG_OF_PERICENTER":96.3812,"MEAN_ANOMALY":263.7328,"EPHEMERIS_TYPE":0,"CLASSIFICATION_TYPE":"U","NORAD_CAT_ID":58029,"ELEMENT_SET_NO":999,"REV_AT_EPOCH":13535,"BSTAR":4.2073259e-5,"MEAN_MOTION_DOT":8.87e-6,"MEAN_MOTION_DDOT":0},{"OBJECT_NAME":"STARLINK-30549","OBJECT_ID":"2023-156C","EPOCH":"2026-03-03T10:06:25.455744","MEAN_MOTION":15.3019275,"ECCENTRICITY":0.00015269,"INCLINATION":53.159,"RA_OF_ASC_NODE":107.4974,"ARG_OF_PERICENTER":89.2411,"MEAN_ANOMALY":270.8765,"EPHEMERIS_TYPE":0,"CLASSIFICATION_TYPE":"U","NORAD_CAT_ID":58030,"ELEMENT_SET_NO":999,"REV_AT_EPOCH":13530,"BSTAR":1.8173982e-5,"MEAN_MOTION_DOT":1.79e-6,"MEAN_MOTION_DDOT":0},{"OBJECT_NAME":"STARLINK-30556","OBJECT_ID":"2023-156D","EPOCH":"2026-03-03T13:40:12.167328","MEAN_MOTION":15.3019633,"ECCENTRICITY":0.00011688,"INCLINATION":53.1597,"RA_OF_ASC_NODE":116.8205,"ARG_OF_PERICENTER":89.1718,"MEAN_ANOMALY":270.9416,"EPHEMERIS_TYPE":0,"CLASSIFICATION_TYPE":"U","NORAD_CAT_ID":58031,"ELEMENT_SET_NO":999,"REV_AT_EPOCH":13522,"BSTAR":1.1306257e-5,"MEAN_MOTION_DOT":-2.4e-7,"MEAN_MOTION_DDOT":0},{"OBJECT_NAME":"STARLINK-30561","OBJECT_ID":"2023-156E","EPOCH":"2026-03-03T10:15:32.188896","MEAN_MOTION":15.30194892,"ECCENTRICITY":0.0001037,"INCLINATION":53.1593,"RA_OF_ASC_NODE":107.5353,"ARG_OF_PERICENTER":111.3789,"MEAN_ANOMALY":248.7322,"EPHEMERIS_TYPE":0,"CLASSIFICATION_TYPE":"U","NORAD_CAT_ID":58032,"ELEMENT_SET_NO":999,"REV_AT_EPOCH":13535,"BSTAR":3.3257438e-5,"MEAN_MOTION_DOT":6.26e-6,"MEAN_MOTION_DDOT":0},{"OBJECT_NAME":"STARLINK-30562","OBJECT_ID":"2023-156F","EPOCH":"2026-03-03T14:16:13.605888","MEAN_MOTION":15.30205308,"ECCENTRICITY":0.00012193,"INCLINATION":53.1597,"RA_OF_ASC_NODE":196.2035,"ARG_OF_PERICENTER":83.6065,"MEAN_ANOMALY":276.5075,"EPHEMERIS_TYPE":0,"CLASSIFICATION_TYPE":"U","NORAD_CAT_ID":58033,"ELEMENT_SET_NO":999,"REV_AT_EPOCH":13410,"BSTAR":-0.00011881111,"MEAN_MOTION_DOT":-3.877e-5,"MEAN_MOTION_DDOT":0}]
