STARLINK-30546          
1 58003U 23153N   26062.66668981  .01263386  00000+0  45200-1 0  9996
2 58003  43.0009 100.4964 0001356 271.9214  24.0604 15.25109456  5794
STARLINK-30539          
1 58004U 23153P   26062.66668981  .01199034  00000+0  44952-1 0  9998
2 58004  43.0006 100.5231 0001314 271.3053  14.7302 15.23693644  5795
STARLINK-30530          
1 58005U 23153Q   26062.66668981  .02115255  00000+0  87214-1 0  9991
2 58005  42.9995 100.6578 0001817 266.2883 318.5762 15.20199486  5739
STARLINK-30526          
1 58006U 23153R   26062.41335594  .00006173  00000+0  32568-3 0  9996
2 58006  42.9985  76.6932 0000229 352.8634   7.2210 15.16163592134239
STARLINK-30527          
1 58007U 23153S   26062.50404002 -.00000425  00000+0 -59187-5 0  9992
2 58007  42.9986 233.3103 0001184 272.3893  87.6823 15.27574734136518
STARLINK-30522          
1 58008U 23153T   26062.66668981  .02140938  00000+0  93267-1 0  9995
2 58008  43.0000 101.0844 0001166 294.0008 109.7399 15.18247213  5798
STARLINK-30486          
1 58009U 23153U   26062.66668981  .02170977  00000+0  89115-1 0  9999
2 58009  43.0000 100.7083 0002027 247.5406 314.5949 15.20266586  5796
STARLINK-30520          
1 58010U 23153V   26062.66668981  .00087615  00000+0  31722-2 0  9997
2 58010  43.0004 100.6815 0002397 170.5995  43.2124 15.27408273  5746
STARLINK-30497          
1 58011U 23153W   26062.66668981  .00087682  00000+0  32446-2 0  9996
2 58011  43.0008 100.6909 0001766 279.1627 288.7843 15.26690252  5745
STARLINK-30525          
1 58012U 23153X   26062.66668981  .02053728  00000+0  72741-1 0  9994
2 58012  43.0002 100.7949 0001528 237.9176 286.8408 15.24910802  5797
STARLINK-30514          
1 58028U 23156A   26062.38528278  .00000065  00000+0  14320-4 0  9993
2 58028  53.1612 107.4544 0001212  90.0186 270.0954 15.30184918135352
STARLINK-30518          
1 58029U 23156B   26062.39477010  .00000887  00000+0  42073-4 0  9990
2 58029  53.1599 107.5187 0001219  96.3812 263.7328 15.30197186135358
STARLINK-30549          
1 58030U 23156C   26062.42112796  .00000179  00000+0  18174-4 0  9992
2 58030  53.1590 107.4974 0001526  89.2411 270.8765 15.30192750135302
STARLINK-30556          
1 58031U 23156D   26062.56958527 -.00000024  00000+0  11306-4 0  9998
2 58031  53.1597 116.8205 0001168  89.1718 270.9416 15.30196330135225
STARLINK-30561          
1 58032U 23156E   26062.42745589  .00000626  00000+0  33257-4 0  9992
2 58032  53.1593 107.5353 0001037 111.3789 248.7322 15.30194892135358
STARLINK-30562          
1 58033U 23156F   26062.59460192 -.00003877  00000+0 -11881-3 0  9996
2 58033  53.1597 196.2035 0001219  83.6065 276.5075 15.30205308134106
